[{"OBJECT_NAME":"STARLINK-32352","OBJECT_ID":"2024-202C","EPOCH":"2026-03-09T11:07:06.441600","MEAN_MOTION":15.2759426,"ECCENTRICITY":7.462e-5,"INCLINATION":42.9951,"RA_OF_ASC_NODE":227.9627,"ARG_OF_PERICENTER":262.733,"MEAN_ANOMALY":97.3437,"EPHEMERIS_TYPE":0,"CLASSIFICATION_TYPE":"U","NORAD_CAT_ID":61847,"ELEMENT_SET_NO":999,"REV_AT_EPOCH":7543,"BSTAR":-0.00018270001,"MEAN_MOTION_DOT":-5.288e-5,"MEAN_MOTION_DDOT":0},{"OBJECT_NAME":"TITAN 4B R\/B","OBJECT_ID":"2005-016B","EPOCH":"2026-03-09T20:27:57.848832","MEAN_MOTION":15.42682045,"ECCENTRICITY":0.00616552,"INCLINATION":56.9964,"RA_OF_ASC_NODE":245.9411,"ARG_OF_PERICENTER":20.2929,"MEAN_ANOMALY":340.0555,"EPHEMERIS_TYPE":0,"CLASSIFICATION_TYPE":"U","NORAD_CAT_ID":28647,"ELEMENT_SET_NO":999,"REV_AT_EPOCH":37707,"BSTAR":0.00046483736,"MEAN_MOTION_DOT":0.0002164,"MEAN_MOTION_DDOT":0}]
